CCSDS_OMM_VERS = 2.0
CREATION_DATE  = 
ORIGINATOR     = 

OBJECT_NAME    = STARLINK-36409
OBJECT_ID      = 2026-005C
CENTER_NAME    = EARTH
REF_FRAME      = TEME
TIME_SYSTEM    = UTC
MEAN_ELEMENT_THEORY = SGP/SGP4

EPOCH          = 2026-02-04T12:00:01.999296
MEAN_MOTION    = 15.50855155
ECCENTRICITY   = .000143
INCLINATION    = 43.0000
RA_OF_ASC_NODE = 68.3893
ARG_OF_PERICENTER = 295.0295
MEAN_ANOMALY   = 162.8714

EPHEMERIS_TYPE = 0
CLASSIFICATION_TYPE = U
NORAD_CAT_ID   = 67406
ELEMENT_SET_NO = 999
REV_AT_EPOCH   = 485
BSTAR          = -.35774E-1
MEAN_MOTION_DOT = -.1904267E-1
MEAN_MOTION_DDOT = 0

CCSDS_OMM_VERS = 2.0
CREATION_DATE  = 
ORIGINATOR     = 

OBJECT_NAME    = STARLINK-36510
OBJECT_ID      = 2026-005D
CENTER_NAME    = EARTH
REF_FRAME      = TEME
TIME_SYSTEM    = UTC
MEAN_ELEMENT_THEORY = SGP/SGP4

EPOCH          = 2026-02-04T12:00:01.999296
MEAN_MOTION    = 15.50557001
ECCENTRICITY   = .0001495
INCLINATION    = 43.0002
RA_OF_ASC_NODE = 68.3844
ARG_OF_PERICENTER = 275.2130
MEAN_ANOMALY   = 184.6416

EPHEMERIS_TYPE = 0
CLASSIFICATION_TYPE = U
NORAD_CAT_ID   = 67407
ELEMENT_SET_NO = 999
REV_AT_EPOCH   = 485
BSTAR          = .39278E-4
MEAN_MOTION_DOT = .1961E-4
MEAN_MOTION_DDOT = 0

CCSDS_OMM_VERS = 2.0
CREATION_DATE  = 
ORIGINATOR     = 

OBJECT_NAME    = STARLINK-36509
OBJECT_ID      = 2026-005E
CENTER_NAME    = EARTH
REF_FRAME      = TEME
TIME_SYSTEM    = UTC
MEAN_ELEMENT_THEORY = SGP/SGP4

EPOCH          = 2026-02-04T12:00:01.999296
MEAN_MOTION    = 15.50479967
ECCENTRICITY   = .0001285
INCLINATION    = 43.0002
RA_OF_ASC_NODE = 68.3802
ARG_OF_PERICENTER = 270.1658
MEAN_ANOMALY   = 191.6245

EPHEMERIS_TYPE = 0
CLASSIFICATION_TYPE = U
NORAD_CAT_ID   = 67408
ELEMENT_SET_NO = 999
REV_AT_EPOCH   = 485
BSTAR          = .27003E-2
MEAN_MOTION_DOT = .160801E-2
MEAN_MOTION_DDOT = 0

CCSDS_OMM_VERS = 2.0
CREATION_DATE  = 
ORIGINATOR     = 

OBJECT_NAME    = STARLINK-36507
OBJECT_ID      = 2026-005F
CENTER_NAME    = EARTH
REF_FRAME      = TEME
TIME_SYSTEM    = UTC
MEAN_ELEMENT_THEORY = SGP/SGP4

EPOCH          = 2026-02-04T12:00:01.999296
MEAN_MOTION    = 15.50557327
ECCENTRICITY   = .0001466
INCLINATION    = 43.0002
RA_OF_ASC_NODE = 68.3744
ARG_OF_PERICENTER = 273.7549
MEAN_ANOMALY   = 189.9334

EPHEMERIS_TYPE = 0
CLASSIFICATION_TYPE = U
NORAD_CAT_ID   = 67409
ELEMENT_SET_NO = 999
REV_AT_EPOCH   = 485
BSTAR          = .34603E-4
MEAN_MOTION_DOT = .1687E-4
MEAN_MOTION_DDOT = 0

CCSDS_OMM_VERS = 2.0
CREATION_DATE  = 
ORIGINATOR     = 

OBJECT_NAME    = STARLINK-36508
OBJECT_ID      = 2026-005G
CENTER_NAME    = EARTH
REF_FRAME      = TEME
TIME_SYSTEM    = UTC
MEAN_ELEMENT_THEORY = SGP/SGP4

EPOCH          = 2026-02-04T12:00:01.999296
MEAN_MOTION    = 15.43561134
ECCENTRICITY   = .0001676
INCLINATION    = 43.0004
RA_OF_ASC_NODE = 68.4177
ARG_OF_PERICENTER = 274.0787
MEAN_ANOMALY   = 172.5404

EPHEMERIS_TYPE = 0
CLASSIFICATION_TYPE = U
NORAD_CAT_ID   = 67410
ELEMENT_SET_NO = 999
REV_AT_EPOCH   = 485
BSTAR          = -.41765E-1
MEAN_MOTION_DOT = -.171046E-1
MEAN_MOTION_DDOT = 0

CCSDS_OMM_VERS = 2.0
CREATION_DATE  = 
ORIGINATOR     = 

OBJECT_NAME    = STARLINK-36503
OBJECT_ID      = 2026-005H
CENTER_NAME    = EARTH
REF_FRAME      = TEME
TIME_SYSTEM    = UTC
MEAN_ELEMENT_THEORY = SGP/SGP4

EPOCH          = 2026-02-04T12:00:01.999296
MEAN_MOTION    = 15.50554426
ECCENTRICITY   = .000142
INCLINATION    = 43.0002
RA_OF_ASC_NODE = 68.3648
ARG_OF_PERICENTER = 273.0581
MEAN_ANOMALY   = 194.4611

EPHEMERIS_TYPE = 0
CLASSIFICATION_TYPE = U
NORAD_CAT_ID   = 67411
ELEMENT_SET_NO = 999
REV_AT_EPOCH   = 459
BSTAR          = .22943E-3
MEAN_MOTION_DOT = .13129E-3
MEAN_MOTION_DDOT = 0

CCSDS_OMM_VERS = 2.0
CREATION_DATE  = 
ORIGINATOR     = 

OBJECT_NAME    = STARLINK-36446
OBJECT_ID      = 2026-005J
CENTER_NAME    = EARTH
REF_FRAME      = TEME
TIME_SYSTEM    = UTC
MEAN_ELEMENT_THEORY = SGP/SGP4

EPOCH          = 2026-02-04T12:00:01.999296
MEAN_MOTION    = 15.50548382
ECCENTRICITY   = .0001283
INCLINATION    = 43.0003
RA_OF_ASC_NODE = 68.3596
ARG_OF_PERICENTER = 274.8708
MEAN_ANOMALY   = 194.5595

EPHEMERIS_TYPE = 0
CLASSIFICATION_TYPE = U
NORAD_CAT_ID   = 67412
ELEMENT_SET_NO = 999
REV_AT_EPOCH   = 485
BSTAR          = .7962E-3
MEAN_MOTION_DOT = .46594E-3
MEAN_MOTION_DDOT = 0

CCSDS_OMM_VERS = 2.0
CREATION_DATE  = 
ORIGINATOR     = 

OBJECT_NAME    = STARLINK-36442
OBJECT_ID      = 2026-005K
CENTER_NAME    = EARTH
REF_FRAME      = TEME
TIME_SYSTEM    = UTC
MEAN_ELEMENT_THEORY = SGP/SGP4

EPOCH          = 2026-02-04T12:00:01.999296
MEAN_MOTION    = 15.50491322
ECCENTRICITY   = .0001399
INCLINATION    = 43.0002
RA_OF_ASC_NODE = 68.3545
ARG_OF_PERICENTER = 271.3208
MEAN_ANOMALY   = 200.0540

EPHEMERIS_TYPE = 0
CLASSIFICATION_TYPE = U
NORAD_CAT_ID   = 67413
ELEMENT_SET_NO = 999
REV_AT_EPOCH   = 485
BSTAR          = .20248E-2
MEAN_MOTION_DOT = .119906E-2
MEAN_MOTION_DDOT = 0

CCSDS_OMM_VERS = 2.0
CREATION_DATE  = 
ORIGINATOR     = 

OBJECT_NAME    = STARLINK-36506
OBJECT_ID      = 2026-005L
CENTER_NAME    = EARTH
REF_FRAME      = TEME
TIME_SYSTEM    = UTC
MEAN_ELEMENT_THEORY = SGP/SGP4

EPOCH          = 2026-02-04T12:00:01.999296
MEAN_MOTION    = 15.50479858
ECCENTRICITY   = .0001227
INCLINATION    = 43.0003
RA_OF_ASC_NODE = 68.3506
ARG_OF_PERICENTER = 272.0377
MEAN_ANOMALY   = 201.2521

EPHEMERIS_TYPE = 0
CLASSIFICATION_TYPE = U
NORAD_CAT_ID   = 67414
ELEMENT_SET_NO = 999
REV_AT_EPOCH   = 485
BSTAR          = .27222E-2
MEAN_MOTION_DOT = .162134E-2
MEAN_MOTION_DDOT = 0

CCSDS_OMM_VERS = 2.0
CREATION_DATE  = 
ORIGINATOR     = 

OBJECT_NAME    = STARLINK-36468
OBJECT_ID      = 2026-005M
CENTER_NAME    = EARTH
REF_FRAME      = TEME
TIME_SYSTEM    = UTC
MEAN_ELEMENT_THEORY = SGP/SGP4

EPOCH          = 2026-02-04T12:00:01.999296
MEAN_MOTION    = 15.50484474
ECCENTRICITY   = .0001483
INCLINATION    = 43.0004
RA_OF_ASC_NODE = 68.3458
ARG_OF_PERICENTER = 274.6123
MEAN_ANOMALY   = 200.5928

EPHEMERIS_TYPE = 0
CLASSIFICATION_TYPE = U
NORAD_CAT_ID   = 67415
ELEMENT_SET_NO = 999
REV_AT_EPOCH   = 480
BSTAR          = .23632E-2
MEAN_MOTION_DOT = .140338E-2
MEAN_MOTION_DDOT = 0

CCSDS_OMM_VERS = 2.0
CREATION_DATE  = 
ORIGINATOR     = 

OBJECT_NAME    = STARLINK-36487
OBJECT_ID      = 2026-005N
CENTER_NAME    = EARTH
REF_FRAME      = TEME
TIME_SYSTEM    = UTC
MEAN_ELEMENT_THEORY = SGP/SGP4

EPOCH          = 2026-02-04T12:00:01.999296
MEAN_MOTION    = 15.45350909
ECCENTRICITY   = .000148
INCLINATION    = 43.0003
RA_OF_ASC_NODE = 68.3675
ARG_OF_PERICENTER = 282.4295
MEAN_ANOMALY   = 183.8661

EPHEMERIS_TYPE = 0
CLASSIFICATION_TYPE = U
NORAD_CAT_ID   = 67416
ELEMENT_SET_NO = 999
REV_AT_EPOCH   = 485
BSTAR          = -.4543E-1
MEAN_MOTION_DOT = -.1982183E-1
MEAN_MOTION_DDOT = 0

CCSDS_OMM_VERS = 2.0
CREATION_DATE  = 
ORIGINATOR     = 

OBJECT_NAME    = STARLINK-36374
OBJECT_ID      = 2026-005P
CENTER_NAME    = EARTH
REF_FRAME      = TEME
TIME_SYSTEM    = UTC
MEAN_ELEMENT_THEORY = SGP/SGP4

EPOCH          = 2026-02-04T12:00:01.999296
MEAN_MOTION    = 15.50557245
ECCENTRICITY   = .0001456
INCLINATION    = 43.0002
RA_OF_ASC_NODE = 68.3357
ARG_OF_PERICENTER = 272.3820
MEAN_ANOMALY   = 206.6440

EPHEMERIS_TYPE = 0
CLASSIFICATION_TYPE = U
NORAD_CAT_ID   = 67417
ELEMENT_SET_NO = 999
REV_AT_EPOCH   = 485
BSTAR          = .65824E-4
MEAN_MOTION_DOT = .3519E-4
MEAN_MOTION_DDOT = 0

