STARLINK-36409          
1 67406U 26005C   26035.50002314 -.01904267  00000+0 -35774-1 0  9994
2 67406  43.0000  68.3893 0001430 295.0295 162.8714 15.50855155  4855
STARLINK-36510          
1 67407U 26005D   26035.50002314  .00001961  00000+0  39278-4 0  9997
2 67407  43.0002  68.3844 0001495 275.2130 184.6416 15.50557001  4853
STARLINK-36509          
1 67408U 26005E   26035.50002314  .00160801  00000+0  27003-2 0  9998
2 67408  43.0002  68.3802 0001285 270.1658 191.6245 15.50479967  4856
STARLINK-36507          
1 67409U 26005F   26035.50002314  .00001687  00000+0  34603-4 0  9991
2 67409  43.0002  68.3744 0001466 273.7549 189.9334 15.50557327  4857
STARLINK-36508          
1 67410U 26005G   26035.50002314 -.01710460  00000+0 -41765-1 0  9996
2 67410  43.0004  68.4177 0001676 274.0787 172.5404 15.43561134  4852
STARLINK-36503          
1 67411U 26005H   26035.50002314  .00013129  00000+0  22943-3 0  9991
2 67411  43.0002  68.3648 0001420 273.0581 194.4611 15.50554426  4599
STARLINK-36446          
1 67412U 26005J   26035.50002314  .00046594  00000+0  79620-3 0  9998
2 67412  43.0003  68.3596 0001283 274.8708 194.5595 15.50548382  4855
STARLINK-36442          
1 67413U 26005K   26035.50002314  .00119906  00000+0  20248-2 0  9998
2 67413  43.0002  68.3545 0001399 271.3208 200.0540 15.50491322  4858
STARLINK-36506          
1 67414U 26005L   26035.50002314  .00162134  00000+0  27222-2 0  9999
2 67414  43.0003  68.3506 0001227 272.0377 201.2521 15.50479858  4854
STARLINK-36468          
1 67415U 26005M   26035.50002314  .00140338  00000+0  23632-2 0  9993
2 67415  43.0004  68.3458 0001483 274.6123 200.5928 15.50484474  4801
STARLINK-36487          
1 67416U 26005N   26035.50002314 -.01982183  00000+0 -45430-1 0  9998
2 67416  43.0003  68.3675 0001480 282.4295 183.8661 15.45350909  4857
STARLINK-36374          
1 67417U 26005P   26035.50002314  .00003519  00000+0  65824-4 0  9995
2 67417  43.0002  68.3357 0001456 272.3820 206.6440 15.50557245  4856
